{
  "norad_id": 67209,
  "name": "STARLINK-36226",
  "history": [
    {
      "epoch": "2026-03-28T19:26:33.013248Z",
      "apogee_km": 574.1474966890719,
      "perigee_km": 569.8910819743605,
      "latitude_deg": -1.4684008130677862e-05,
      "longitude_deg": 8.593128340724785,
      "height_km": 574.4537319536705,
      "semi_major_axis_km": 6950.156289331716,
      "eccentricity": 0.00030621,
      "inclination_deg": 70.0028,
      "raan_deg": 126.4559,
      "arg_perigee_deg": 269.8193,
      "mean_anomaly_deg": 90.2615,
      "mean_motion_rev_day": 14.98341836
    },
    {
      "epoch": "2026-03-29T05:03:21.171744Z",
      "apogee_km": 574.2737084638802,
      "perigee_km": 569.7324869240465,
      "latitude_deg": 3.133883909563995e-05,
      "longitude_deg": -137.01262274769957,
      "height_km": 574.4158307390661,
      "semi_major_axis_km": 6950.140097693963,
      "eccentricity": 0.0003267,
      "inclination_deg": 70.0013,
      "raan_deg": 125.4456,
      "arg_perigee_deg": 270.3807,
      "mean_anomaly_deg": 89.6978,
      "mean_motion_rev_day": 14.98347072
    },
    {
      "epoch": "2026-03-30T01:53:06.132480Z",
      "apogee_km": 574.4057535024112,
      "perigee_km": 569.6879686974962,
      "latitude_deg": -1.009549250706148e-05,
      "longitude_deg": -92.492596684123,
      "height_km": 574.4727516429101,
      "semi_major_axis_km": 6950.183861099953,
      "eccentricity": 0.0003394,
      "inclination_deg": 70.0018,
      "raan_deg": 123.2584,
      "arg_perigee_deg": 270.0504,
      "mean_anomaly_deg": 90.0266,
      "mean_motion_rev_day": 14.9833292
    }
  ]
}